start=new Date('2023-06-09T00:00:00.000Z').valueOf();
sats=[{"OBJECT_NAME":"STARLINK-3058","INCLINATION":"69.9994","TLE_LINE1":"1 49138U 21082J   23159.57584913  .00000467  00000-0  46898-4 0  9996","LAUNCH_DATE":"2021-09-14","MEAN_MOTION_DOT":"0.00000467","ECCENTRICITY":"0.00032230","DECAY_DATE":null,"OBJECT_TYPE":"PAYLOAD","ARG_OF_PERICENTER":"269.7776","NORAD_CAT_ID":"49138","RA_OF_ASC_NODE":"308.7110","MEAN_ELEMENT_THEORY":"SGP4","REF_FRAME":"TEME","FILE":"3928201","MEAN_MOTION_DDOT":"0.0000000000000","MEAN_MOTION":"14.98329099","MEAN_ANOMALY":"90.3014","RCS_SIZE":"LARGE","TIME_SYSTEM":"UTC","TLE_LINE2":"2 49138  69.9994 308.7110 0003223 269.7776  90.3014 14.98329099 95428","REV_AT_EPOCH":"9542","PERIOD":"96.107","OBJECT_ID":"2021-082J","ELEMENT_SET_NO":"999","COUNTRY_CODE":"US","APOAPSIS":"574.301","PERIAPSIS":"569.821","CLASSIFICATION_TYPE":"U","CENTER_NAME":"EARTH","EPHEMERIS_TYPE":"0","SEMIMAJOR_AXIS":"6950.196","GP_ID":"233502871","EPOCH":"2023-06-08T13:49:13.364832","SITE":"AFWTR","BSTAR":"0.00004689800000"},{"ELEMENT_SET_NO":"999","OBJECT_ID":"2021-082K","COUNTRY_CODE":"US","APOAPSIS":"574.238","PERIAPSIS":"569.855","CLASSIFICATION_TYPE":"U","TIME_SYSTEM":"UTC","PERIOD":"96.107","TLE_LINE2":"2 49139  69.9997 268.7761 0003153 269.3149  90.7649 14.98333624 96407","REV_AT_EPOCH":"9640","MEAN_MOTION":"14.98333624","MEAN_ANOMALY":"90.7649","RCS_SIZE":"LARGE","REF_FRAME":"TEME","FILE":"3928007","MEAN_MOTION_DDOT":"0.0000000000000","EPOCH":"2023-06-08T13:00:28.897632","SITE":"AFWTR","BSTAR":"0.00004069900000","GP_ID":"233471965","SEMIMAJOR_AXIS":"6950.182","CENTER_NAME":"EARTH","EPHEMERIS_TYPE":"0","OBJECT_TYPE":"PAYLOAD","ECCENTRICITY":"0.00031530","DECAY_DATE":null,"LAUNCH_DATE":"2021-09-14","TLE_LINE1":"1 49139U 21082K   23159.54200113  .00000393  00000-0  40699-4 0  9992","MEAN_MOTION_DOT":"0.00000393","OBJECT_NAME":"STARLINK-3057","INCLINATION":"69.9997","MEAN_ELEMENT_THEORY":"SGP4","NORAD_CAT_ID":"49139","RA_OF_ASC_NODE":"268.7761","ARG_OF_PERICENTER":"269.3149"},{"MEAN_ELEMENT_THEORY":"SGP4","RA_OF_ASC_NODE":"268.6369","NORAD_CAT_ID":"49140","ARG_OF_PERICENTER":"270.1934","OBJECT_TYPE":"PAYLOAD","ECCENTRICITY":"0.00032780","DECAY_DATE":null,"MEAN_MOTION_DOT":"0.00001037","TLE_LINE1":"1 49140U 21082L   23159.60041551  .00001037  00000-0  94649-4 0  9990","LAUNCH_DATE":"2021-09-14","INCLINATION":"69.9996","OBJECT_NAME":"STARLINK-3118","BSTAR":"0.00009464900000","SITE":"AFWTR","EPOCH":"2023-06-08T14:24:35.900064","GP_ID":"233472213","SEMIMAJOR_AXIS":"6950.182","EPHEMERIS_TYPE":"0","CENTER_NAME":"EARTH","CLASSIFICATION_TYPE":"U","APOAPSIS":"574.325","PERIAPSIS":"569.769","COUNTRY_CODE":"US","ELEMENT_SET_NO":"999","OBJECT_ID":"2021-082L","PERIOD":"96.107","TLE_LINE2":"2 49140  69.9996 268.6369 0003278 270.1934  89.8849 14.98333596 96411","REV_AT_EPOCH":"9641","TIME_SYSTEM":"UTC","RCS_SIZE":"LARGE","MEAN_ANOMALY":"89.8849","MEAN_MOTION":"14.98333596","MEAN_MOTION_DDOT":"0.0000000000000","FILE":"3928007","REF_FRAME":"TEME"},{"MEAN_MOTION_DOT":"-0.00000095","TLE_LINE1":"1 49141U 21082M   23159.57167621 -.00000095  00000-0 -12594-6 0  9990","LAUNCH_DATE":"2021-09-14","INCLINATION":"69.9998","OBJECT_NAME":"STARLINK-3093","OBJECT_TYPE":"PAYLOAD","DECAY_DATE":null,"ECCENTRICITY":"0.00031900","ARG_OF_PERICENTER":"269.6694","MEAN_ELEMENT_THEORY":"SGP4","RA_OF_ASC_NODE":"308.7256","NORAD_CAT_ID":"49141","RCS_SIZE":"LARGE","MEAN_MOTION":"14.98331629","MEAN_ANOMALY":"90.4099","REF_FRAME":"TEME","FILE":"3928201","MEAN_MOTION_DDOT":"0.0000000000000","PERIAPSIS":"569.836","APOAPSIS":"574.270","CLASSIFICATION_TYPE":"U","ELEMENT_SET_NO":"999","OBJECT_ID":"2021-082M","COUNTRY_CODE":"US","REV_AT_EPOCH":"9662","TLE_LINE2":"2 49141  69.9998 308.7256 0003190 269.6694  90.4099 14.98331629 96627","PERIOD":"96.107","TIME_SYSTEM":"UTC","SEMIMAJOR_AXIS":"6950.188","EPHEMERIS_TYPE":"0","CENTER_NAME":"EARTH","BSTAR":"-0.00000012594000","EPOCH":"2023-06-08T13:43:12.824544","SITE":"AFWTR","GP_ID":"233503123"},{"BSTAR":"0.00007835600000","SITE":"AFWTR","EPOCH":"2023-06-08T14:18:35.416800","GP_ID":"233480217","SEMIMAJOR_AXIS":"6950.177","EPHEMERIS_TYPE":"0","CENTER_NAME":"EARTH","CLASSIFICATION_TYPE":"U","APOAPSIS":"574.218","PERIAPSIS":"569.866","COUNTRY_CODE":"US","ELEMENT_SET_NO":"999","OBJECT_ID":"2021-082N","REV_AT_EPOCH":"9641","TLE_LINE2":"2 49142  70.0005 268.6524 0003131 269.3588  90.7212 14.98335088 96416","PERIOD":"96.107","TIME_SYSTEM":"UTC","RCS_SIZE":"LARGE","MEAN_ANOMALY":"90.7212","MEAN_MOTION":"14.98335088","MEAN_MOTION_DDOT":"0.0000000000000","FILE":"3928158","REF_FRAME":"TEME","MEAN_ELEMENT_THEORY":"SGP4","RA_OF_ASC_NODE":"268.6524","NORAD_CAT_ID":"49142","ARG_OF_PERICENTER":"269.3588","OBJECT_TYPE":"PAYLOAD","DECAY_DATE":null,"ECCENTRICITY":"0.00031310","MEAN_MOTION_DOT":"0.00000842","LAUNCH_DATE":"2021-09-14","TLE_LINE1":"1 49142U 21082N   23159.59624325  .00000842  00000-0  78356-4 0  9996","INCLINATION":"70.0005","OBJECT_NAME":"STARLINK-3042"},{"TIME_SYSTEM":"UTC","PERIOD":"96.107","TLE_LINE2":"2 49143  69.9996 288.6322 0003075 270.5050  89.5756 14.98332951 97030","REV_AT_EPOCH":"9703","OBJECT_ID":"2021-082P","ELEMENT_SET_NO":"999","COUNTRY_CODE":"US","APOAPSIS":"574.186","PERIAPSIS":"569.912","CLASSIFICATION_TYPE":"U","REF_FRAME":"TEME","FILE":"3928007","MEAN_MOTION_DDOT":"0.0000000000000","MEAN_MOTION":"14.98332951","MEAN_ANOMALY":"89.5756","RCS_SIZE":"LARGE","GP_ID":"233471465","EPOCH":"2023-06-08T14:30:56.678688","SITE":"AFWTR","BSTAR":"-0.00001233600000","CENTER_NAME":"EARTH","EPHEMERIS_TYPE":"0","SEMIMAJOR_AXIS":"6950.184","ECCENTRICITY":"0.00030750","DECAY_DATE":null,"OBJECT_TYPE":"PAYLOAD","OBJECT_NAME":"STARLINK-3109","INCLINATION":"69.9996","TLE_LINE1":"1 49143U 21082P   23159.60482267 -.00000240  00000-0 -12336-4 0  9996","LAUNCH_DATE":"2021-09-14","MEAN_MOTION_DOT":"-0.00000240","NORAD_CAT_ID":"49143","RA_OF_ASC_NODE":"288.6322","MEAN_ELEMENT_THEORY":"SGP4","ARG_OF_PERICENTER":"270.5050"},{"ARG_OF_PERICENTER":"270.1287","RA_OF_ASC_NODE":"308.7252","NORAD_CAT_ID":"49144","MEAN_ELEMENT_THEORY":"SGP4","INCLINATION":"69.9998","OBJECT_NAME":"STARLINK-3100","MEAN_MOTION_DOT":"0.00001244","LAUNCH_DATE":"2021-09-14","TLE_LINE1":"1 49144U 21082Q   23159.56333045  .00001244  00000-0  11204-3 0  9996","DECAY_DATE":null,"ECCENTRICITY":"0.00032240","OBJECT_TYPE":"PAYLOAD","EPHEMERIS_TYPE":"0","CENTER_NAME":"EARTH","SEMIMAJOR_AXIS":"6950.192","GP_ID":"233502372","BSTAR":"0.00011204000000","SITE":"AFWTR","EPOCH":"2023-06-08T13:31:11.750880","MEAN_MOTION_DDOT":"0.0000000000000","FILE":"3928201","REF_FRAME":"TEME","RCS_SIZE":"LARGE","MEAN_ANOMALY":"89.9503","MEAN_MOTION":"14.98330408","REV_AT_EPOCH":"9542","TLE_LINE2":"2 49144  69.9998 308.7252 0003224 270.1287  89.9503 14.98330408 95423","PERIOD":"96.107","TIME_SYSTEM":"UTC","CLASSIFICATION_TYPE":"U","PERIAPSIS":"569.816","APOAPSIS":"574.297","COUNTRY_CODE":"US","ELEMENT_SET_NO":"999","OBJECT_ID":"2021-082Q"},{"GP_ID":"233502623","BSTAR":"0.00006631800000","EPOCH":"2023-06-08T17:06:49.699008","SITE":"AFWTR","EPHEMERIS_TYPE":"0","CENTER_NAME":"EARTH","SEMIMAJOR_AXIS":"6950.187","TLE_LINE2":"2 49145  69.9994 268.3406 0003142 268.4055  91.6744 14.98331978 96425","REV_AT_EPOCH":"9642","PERIOD":"96.107","TIME_SYSTEM":"UTC","PERIAPSIS":"569.868","APOAPSIS":"574.236","CLASSIFICATION_TYPE":"U","OBJECT_ID":"2021-082R","ELEMENT_SET_NO":"999","COUNTRY_CODE":"US","REF_FRAME":"TEME","FILE":"3928201","MEAN_MOTION_DDOT":"0.0000000000000","RCS_SIZE":"LARGE","MEAN_MOTION":"14.98331978","MEAN_ANOMALY":"91.6744","RA_OF_ASC_NODE":"268.3406","NORAD_CAT_ID":"49145","MEAN_ELEMENT_THEORY":"SGP4","ARG_OF_PERICENTER":"268.4055","DECAY_DATE":null,"ECCENTRICITY":"0.00031420","OBJECT_TYPE":"PAYLOAD","INCLINATION":"69.9994","OBJECT_NAME":"STARLINK-3119","MEAN_MOTION_DOT":"0.00000698","LAUNCH_DATE":"2021-09-14","TLE_LINE1":"1 49145U 21082R   23159.71307522  .00000698  00000-0  66318-4 0  9994"},{"MEAN_MOTION_DDOT":"0.0000000000000","FILE":"3928007","REF_FRAME":"TEME","RCS_SIZE":"LARGE","MEAN_ANOMALY":"88.7347","MEAN_MOTION":"14.98331512","REV_AT_EPOCH":"9706","TLE_LINE2":"2 49146  69.9997 288.8139 0003405 271.3422  88.7347 14.98331512 97063","PERIOD":"96.107","TIME_SYSTEM":"UTC","CLASSIFICATION_TYPE":"U","APOAPSIS":"574.420","PERIAPSIS":"569.687","COUNTRY_CODE":"US","ELEMENT_SET_NO":"999","OBJECT_ID":"2021-082S","EPHEMERIS_TYPE":"0","CENTER_NAME":"EARTH","SEMIMAJOR_AXIS":"6950.188","GP_ID":"233471214","BSTAR":"0.00001109600000","SITE":"AFWTR","EPOCH":"2023-06-08T12:48:48.122784","INCLINATION":"69.9997","OBJECT_NAME":"STARLINK-3116","MEAN_MOTION_DOT":"0.00000039","LAUNCH_DATE":"2021-09-14","TLE_LINE1":"1 49146U 21082S   23159.53389031  .00000039  00000-0  11096-4 0  9992","DECAY_DATE":null,"ECCENTRICITY":"0.00034050","OBJECT_TYPE":"PAYLOAD","ARG_OF_PERICENTER":"271.3422","RA_OF_ASC_NODE":"288.8139","NORAD_CAT_ID":"49146","MEAN_ELEMENT_THEORY":"SGP4"},{"MEAN_ELEMENT_THEORY":"SGP4","NORAD_CAT_ID":"49147","RA_OF_ASC_NODE":"268.8342","ARG_OF_PERICENTER":"271.0569","OBJECT_TYPE":"PAYLOAD","DECAY_DATE":null,"ECCENTRICITY":"0.00032420","TLE_LINE1":"1 49147U 21082T   23159.52531254  .00000870  00000-0  80712-4 0  9992","LAUNCH_DATE":"2021-09-14","MEAN_MOTION_DOT":"0.00000870","OBJECT_NAME":"STARLINK-3071","INCLINATION":"70.0001","SITE":"AFWTR","EPOCH":"2023-06-08T12:36:27.003456","BSTAR":"0.00008071200000","GP_ID":"233471966","SEMIMAJOR_AXIS":"6950.191","CENTER_NAME":"EARTH","EPHEMERIS_TYPE":"0","COUNTRY_CODE":"US","ELEMENT_SET_NO":"999","OBJECT_ID":"2021-082T","CLASSIFICATION_TYPE":"U","PERIAPSIS":"569.803","APOAPSIS":"574.309","TIME_SYSTEM":"UTC","PERIOD":"96.107","TLE_LINE2":"2 49147  70.0001 268.8342 0003242 271.0569  89.0219 14.98330561 96407","REV_AT_EPOCH":"9640","MEAN_ANOMALY":"89.0219","MEAN_MOTION":"14.98330561","RCS_SIZE":"LARGE","MEAN_MOTION_DDOT":"0.0000000000000","FILE":"3928007","REF_FRAME":"TEME"}];
